CCSDS_OMM_VERS = 2.0
CREATION_DATE  = 
ORIGINATOR     = 

OBJECT_NAME    = STARLINK-36125
OBJECT_ID      = 2025-294G
CENTER_NAME    = EARTH
REF_FRAME      = TEME
TIME_SYSTEM    = UTC
MEAN_ELEMENT_THEORY = SGP/SGP4

EPOCH          = 2026-01-04T12:54:03.626208
MEAN_MOTION    = 15.50598674
ECCENTRICITY   = .0000826
INCLINATION    = 42.9993
RA_OF_ASC_NODE = 45.0800
ARG_OF_PERICENTER = 278.9096
MEAN_ANOMALY   = 81.1670

EPHEMERIS_TYPE = 0
CLASSIFICATION_TYPE = U
NORAD_CAT_ID   = 67036
ELEMENT_SET_NO = 999
REV_AT_EPOCH   = 493
BSTAR          = .15491E-2
MEAN_MOTION_DOT = .91672E-3
MEAN_MOTION_DDOT = 0

CCSDS_OMM_VERS = 2.0
CREATION_DATE  = 
ORIGINATOR     = 

OBJECT_NAME    = STARLINK-35732
OBJECT_ID      = 2025-294H
CENTER_NAME    = EARTH
REF_FRAME      = TEME
TIME_SYSTEM    = UTC
MEAN_ELEMENT_THEORY = SGP/SGP4

EPOCH          = 2026-01-04T11:20:19.720608
MEAN_MOTION    = 15.50668675
ECCENTRICITY   = .00021193
INCLINATION    = 42.9997
RA_OF_ASC_NODE = 45.4495
ARG_OF_PERICENTER = 37.8541
MEAN_ANOMALY   = 322.2468

EPHEMERIS_TYPE = 0
CLASSIFICATION_TYPE = U
NORAD_CAT_ID   = 67037
ELEMENT_SET_NO = 999
REV_AT_EPOCH   = 492
BSTAR          = .19504903E-2
MEAN_MOTION_DOT = .116171E-2
MEAN_MOTION_DDOT = 0

CCSDS_OMM_VERS = 2.0
CREATION_DATE  = 
ORIGINATOR     = 

OBJECT_NAME    = STARLINK-35775
OBJECT_ID      = 2025-294J
CENTER_NAME    = EARTH
REF_FRAME      = TEME
TIME_SYSTEM    = UTC
MEAN_ELEMENT_THEORY = SGP/SGP4

EPOCH          = 2026-01-03T12:08:27.021120
MEAN_MOTION    = 15.50607066
ECCENTRICITY   = .00011335
INCLINATION    = 42.9999
RA_OF_ASC_NODE = 51.0975
ARG_OF_PERICENTER = 276.9652
MEAN_ANOMALY   = 83.1079

EPHEMERIS_TYPE = 0
CLASSIFICATION_TYPE = U
NORAD_CAT_ID   = 67038
ELEMENT_SET_NO = 999
REV_AT_EPOCH   = 478
BSTAR          = .20712677E-2
MEAN_MOTION_DOT = .123223E-2
MEAN_MOTION_DDOT = 0

CCSDS_OMM_VERS = 2.0
CREATION_DATE  = 
ORIGINATOR     = 

OBJECT_NAME    = STARLINK-35705
OBJECT_ID      = 2025-294K
CENTER_NAME    = EARTH
REF_FRAME      = TEME
TIME_SYSTEM    = UTC
MEAN_ELEMENT_THEORY = SGP/SGP4

EPOCH          = 2026-01-05T02:45:54.544032
MEAN_MOTION    = 15.51655323
ECCENTRICITY   = .00061922
INCLINATION    = 42.9987
RA_OF_ASC_NODE = 41.6699
ARG_OF_PERICENTER = 232.5431
MEAN_ANOMALY   = 127.4867

EPHEMERIS_TYPE = 0
CLASSIFICATION_TYPE = U
NORAD_CAT_ID   = 67039
ELEMENT_SET_NO = 999
REV_AT_EPOCH   = 502
BSTAR          = .26171765E-2
MEAN_MOTION_DOT = .162652E-2
MEAN_MOTION_DDOT = 0

CCSDS_OMM_VERS = 2.0
CREATION_DATE  = 
ORIGINATOR     = 

OBJECT_NAME    = STARLINK-35786
OBJECT_ID      = 2025-294L
CENTER_NAME    = EARTH
REF_FRAME      = TEME
TIME_SYSTEM    = UTC
MEAN_ELEMENT_THEORY = SGP/SGP4

EPOCH          = 2026-01-05T06:00:02.000160
MEAN_MOTION    = 15.40727445
ECCENTRICITY   = .00011452
INCLINATION    = 43.0000
RA_OF_ASC_NODE = 41.1316
ARG_OF_PERICENTER = 263.9717
MEAN_ANOMALY   = 28.0145

EPHEMERIS_TYPE = 0
CLASSIFICATION_TYPE = U
NORAD_CAT_ID   = 67040
ELEMENT_SET_NO = 999
REV_AT_EPOCH   = 387
BSTAR          = -.16304264E-2
MEAN_MOTION_DOT = -.67868E-3
MEAN_MOTION_DDOT = 0

CCSDS_OMM_VERS = 2.0
CREATION_DATE  = 
ORIGINATOR     = 

OBJECT_NAME    = STARLINK-35765
OBJECT_ID      = 2025-294M
CENTER_NAME    = EARTH
REF_FRAME      = TEME
TIME_SYSTEM    = UTC
MEAN_ELEMENT_THEORY = SGP/SGP4

EPOCH          = 2026-01-05T02:45:18.120384
MEAN_MOTION    = 15.48766978
ECCENTRICITY   = .00021045
INCLINATION    = 42.9994
RA_OF_ASC_NODE = 41.6689
ARG_OF_PERICENTER = 315.6206
MEAN_ANOMALY   = 44.4485

EPHEMERIS_TYPE = 0
CLASSIFICATION_TYPE = U
NORAD_CAT_ID   = 67041
ELEMENT_SET_NO = 999
REV_AT_EPOCH   = 502
BSTAR          = .18511547E-2
MEAN_MOTION_DOT = .102879E-2
MEAN_MOTION_DDOT = 0

CCSDS_OMM_VERS = 2.0
CREATION_DATE  = 
ORIGINATOR     = 

OBJECT_NAME    = STARLINK-35773
OBJECT_ID      = 2025-294N
CENTER_NAME    = EARTH
REF_FRAME      = TEME
TIME_SYSTEM    = UTC
MEAN_ELEMENT_THEORY = SGP/SGP4

EPOCH          = 2026-01-05T06:00:02.000160
MEAN_MOTION    = 15.40669224
ECCENTRICITY   = .00008726
INCLINATION    = 42.9999
RA_OF_ASC_NODE = 41.0404
ARG_OF_PERICENTER = 278.7543
MEAN_ANOMALY   = 50.5768

EPHEMERIS_TYPE = 0
CLASSIFICATION_TYPE = U
NORAD_CAT_ID   = 67042
ELEMENT_SET_NO = 999
REV_AT_EPOCH   = 406
BSTAR          = .66324554E-3
MEAN_MOTION_DOT = .27473E-3
MEAN_MOTION_DDOT = 0

CCSDS_OMM_VERS = 2.0
CREATION_DATE  = 
ORIGINATOR     = 

OBJECT_NAME    = STARLINK-35901
OBJECT_ID      = 2025-294P
CENTER_NAME    = EARTH
REF_FRAME      = TEME
TIME_SYSTEM    = UTC
MEAN_ELEMENT_THEORY = SGP/SGP4

EPOCH          = 2026-01-04T11:17:21.757344
MEAN_MOTION    = 15.50670279
ECCENTRICITY   = .00016205
INCLINATION    = 42.9996
RA_OF_ASC_NODE = 45.4328
ARG_OF_PERICENTER = 29.8052
MEAN_ANOMALY   = 330.2900

EPHEMERIS_TYPE = 0
CLASSIFICATION_TYPE = U
NORAD_CAT_ID   = 67043
ELEMENT_SET_NO = 999
REV_AT_EPOCH   = 492
BSTAR          = .20005542E-2
MEAN_MOTION_DOT = .119212E-2
MEAN_MOTION_DDOT = 0

CCSDS_OMM_VERS = 2.0
CREATION_DATE  = 
ORIGINATOR     = 

OBJECT_NAME    = STARLINK-35884
OBJECT_ID      = 2025-294Q
CENTER_NAME    = EARTH
REF_FRAME      = TEME
TIME_SYSTEM    = UTC
MEAN_ELEMENT_THEORY = SGP/SGP4

EPOCH          = 2026-01-05T03:23:53.095200
MEAN_MOTION    = 15.40736806
ECCENTRICITY   = .00005343
INCLINATION    = 42.9988
RA_OF_ASC_NODE = 41.8724
ARG_OF_PERICENTER = 214.1148
MEAN_ANOMALY   = 145.9674

EPHEMERIS_TYPE = 0
CLASSIFICATION_TYPE = U
NORAD_CAT_ID   = 67044
ELEMENT_SET_NO = 999
REV_AT_EPOCH   = 502
BSTAR          = .1077534E-2
MEAN_MOTION_DOT = .45028E-3
MEAN_MOTION_DDOT = 0

CCSDS_OMM_VERS = 2.0
CREATION_DATE  = 
ORIGINATOR     = 

OBJECT_NAME    = STARLINK-35891
OBJECT_ID      = 2025-294R
CENTER_NAME    = EARTH
REF_FRAME      = TEME
TIME_SYSTEM    = UTC
MEAN_ELEMENT_THEORY = SGP/SGP4

EPOCH          = 2026-01-04T11:16:21.366336
MEAN_MOTION    = 15.50567221
ECCENTRICITY   = .00015795
INCLINATION    = 42.9995
RA_OF_ASC_NODE = 45.4270
ARG_OF_PERICENTER = 268.3508
MEAN_ANOMALY   = 91.7171

EPHEMERIS_TYPE = 0
CLASSIFICATION_TYPE = U
NORAD_CAT_ID   = 67045
ELEMENT_SET_NO = 999
REV_AT_EPOCH   = 492
BSTAR          = .14703679E-2
MEAN_MOTION_DOT = .86844E-3
MEAN_MOTION_DDOT = 0

CCSDS_OMM_VERS = 2.0
CREATION_DATE  = 
ORIGINATOR     = 

OBJECT_NAME    = STARLINK-35721
OBJECT_ID      = 2025-294S
CENTER_NAME    = EARTH
REF_FRAME      = TEME
TIME_SYSTEM    = UTC
MEAN_ELEMENT_THEORY = SGP/SGP4

EPOCH          = 2026-01-03T12:04:29.834976
MEAN_MOTION    = 15.50573724
ECCENTRICITY   = .00010639
INCLINATION    = 42.9997
RA_OF_ASC_NODE = 51.0751
ARG_OF_PERICENTER = 270.7577
MEAN_ANOMALY   = 89.3161

EPHEMERIS_TYPE = 0
CLASSIFICATION_TYPE = U
NORAD_CAT_ID   = 67046
ELEMENT_SET_NO = 999
REV_AT_EPOCH   = 477
BSTAR          = .27744924E-2
MEAN_MOTION_DOT = .165889E-2
MEAN_MOTION_DDOT = 0

CCSDS_OMM_VERS = 2.0
CREATION_DATE  = 
ORIGINATOR     = 

OBJECT_NAME    = STARLINK-35779
OBJECT_ID      = 2025-294T
CENTER_NAME    = EARTH
REF_FRAME      = TEME
TIME_SYSTEM    = UTC
MEAN_ELEMENT_THEORY = SGP/SGP4

EPOCH          = 2026-01-04T14:21:23.912352
MEAN_MOTION    = 15.50950794
ECCENTRICITY   = .0002358
INCLINATION    = 42.9995
RA_OF_ASC_NODE = 44.6711
ARG_OF_PERICENTER = 346.5501
MEAN_ANOMALY   = 13.5296

EPHEMERIS_TYPE = 0
CLASSIFICATION_TYPE = U
NORAD_CAT_ID   = 67047
ELEMENT_SET_NO = 999
REV_AT_EPOCH   = 494
BSTAR          = .41128E-2
MEAN_MOTION_DOT = .252193E-2
MEAN_MOTION_DDOT = 0

