STARLINK-36125          
1 67036U 25294G   26004.53754197  .00091672  00000+0  15491-2 0  9993
2 67036  42.9993  45.0800 0000826 278.9096  81.1670 15.50598674  4933
STARLINK-35732          
1 67037U 25294H   26004.47245047  .00116171  00000+0  19505-2 0  9998
2 67037  42.9997  45.4495 0002119  37.8541 322.2468 15.50668675  4928
STARLINK-35775          
1 67038U 25294J   26003.50586830  .00123223  00000+0  20713-2 0  9999
2 67038  42.9999  51.0975 0001133 276.9652  83.1079 15.50607066  4783
STARLINK-35705          
1 67039U 25294K   26005.11521463  .00162652  00000+0  26172-2 0  9994
2 67039  42.9987  41.6699 0006192 232.5431 127.4867 15.51655323  5027
STARLINK-35786          
1 67040U 25294L   26005.25002315 -.00067868  00000+0 -16304-2 0  9992
2 67040  43.0000  41.1316 0001145 263.9717  28.0145 15.40727445  3875
STARLINK-35765          
1 67041U 25294M   26005.11479306  .00102879  00000+0  18512-2 0  9999
2 67041  42.9994  41.6689 0002104 315.6206  44.4485 15.48766978  5028
STARLINK-35773          
1 67042U 25294N   26005.25002315  .00027473  00000+0  66325-3 0  9999
2 67042  42.9999  41.0404 0000872 278.7543  50.5768 15.40669224  4069
STARLINK-35901          
1 67043U 25294P   26004.47039071  .00119212  00000+0  20006-2 0  9990
2 67043  42.9996  45.4328 0001620  29.8052 330.2900 15.50670279  4926
STARLINK-35884          
1 67044U 25294Q   26005.14158675  .00045028  00000+0  10775-2 0  9993
2 67044  42.9988  41.8724 0000534 214.1148 145.9674 15.40736806  5025
STARLINK-35891          
1 67045U 25294R   26004.46969174  .00086844  00000+0  14704-2 0  9999
2 67045  42.9995  45.4270 0001579 268.3508  91.7171 15.50567221  4923
STARLINK-35721          
1 67046U 25294S   26003.50312309  .00165889  00000+0  27745-2 0  9992
2 67046  42.9997  51.0751 0001063 270.7577  89.3161 15.50573724  4774
STARLINK-35779          
1 67047U 25294T   26004.59819343  .00252193  00000+0  41128-2 0  9999
2 67047  42.9995  44.6711 0002358 346.5501  13.5296 15.50950794  4947
